#dP2022  7 16  0  0  0.00000000      97 __u+U IGS14 FIT  IAC
## 2218 518400.00000000   900.00000000 59776 0.0000000000000
+  116   C06C07C08C09C10C11C12C13C14C16C19C20C21C22C23C24C25
+        C26C27C28C29C30C32C33C34C35C36C37C38C39C40C41C42C43
+        C44C45C46E01E02E03E04E05E07E08E09E10E11E12E13E14E15
+        E18E19E21E24E25E26E27E30E31E33E34E36G01G02G03G04G05
+        G06G07G08G09G10G11G12G13G14G15G16G17G18G19G20G21G22
+        G23G24G25G26G27G28G29G30G31G32J02J03R01R02R03R04R05
+        R07R08R09R11R12R13R14R15R17R18R19R20R21R24  0  0  0
++         7  7  7  7  7  7  6  7  6  7  5  6  6  6  6  6  6
++         6  5  6  5  5  6  6  6  5  6  6  6  6  6  6  6  6
++         6  6  6  4  4  4  4  5  4  4  4  4  4  4  4  5  4
++         4  4  4  4  4  4  4  4  4  4  5  4  3  5  3  3  3
++         3  4  4  3  3  4  3  4  3  3  4  3  3  4  4  3  3
++         3  3  3  3  3  4  4  3  3  3  9  9  7  6  6  6  6
++         6  6  6  6  6  7  6  6  6  8  7  7  6  6  0  0  0
%c M  cc GPS ccc cccc cccc cccc cccc ccccc ccccc ccccc ccccc
%c cc cc ccc ccc cccc cccc cccc cccc ccccc ccccc ccccc ccccc
%f  1.2500000  1.025000000  0.00000000000  0.000000000000000
%f  0.0000000  0.000000000  0.00000000000  0.000000000000000
%i    0    0    0    0      0      0      0      0         0
%i    0    0    0    0      0      0      0      0         0
/* INFORMATION & ANALYSIS CENTER (IAC)            FINAL DATA
/* S/V CLOCKS ARE ALIGNED TO GNSS TIME                      
/* G:C1WC2W R:C1PC2P E:C1XC5X C:C2IC6I J:C1CC2S             
/* PCV:IGS14_2215 OL/AL:FES2004  NONE     YN ORB:CoN CLK:CoN
*  2022 07 16 22 30  0.00000000
PC06  -5258.114922  39566.780374 -13178.793856    408.743811
PC07  -6367.568172  26280.466045  32382.361560   -438.477057
PC08 -18743.873378  30745.323884 -22079.973472    406.803976
PC09  -1060.574790  41496.143946  -5254.188423   -925.619408
PC10   1230.161867  27996.258848  31863.057940    117.846977
PC11  -5149.744207 -27397.017440    776.387668    478.608641
PC12   6524.498183 -22090.368364 -15710.438186   -575.419045
PC13 -13663.278981  31308.322675 -24778.543356     25.964961
PC14  -9412.038533 -17430.755855  19648.795533    544.539256
PC16  -6306.148207  38508.701896 -15405.546213    143.178226
PC19  18855.599074  15821.993035 -13147.425376   -224.721489
PC20    668.967903  16482.464170 -22501.492206   -963.913031
PC21  19236.085026  -7199.719986  18918.252136   -692.864963
PC22  26933.248636   6054.741710   4197.819090   -962.871961
PC23 -21369.241209   1559.915546 -17866.153372   -946.421914
PC24  10677.208224 -22052.673251 -13339.613538   -967.746743
PC25  -8924.898036 -13791.367300 -22560.190068   -706.607910
PC26  21495.737550 -17643.856228   2086.921146    708.572912
PC27 -11811.709203  14591.410094  20620.447315    755.288046
PC28 -16430.909367  -5624.181576  21840.172074     90.787607
PC29  12246.470552  23058.866368  -9866.159769    582.615951
PC30    151.329382  26649.644909   8237.822879    501.152714
PC32 -19208.342717   7313.011335 -18856.452965   -972.416299
PC33 -18819.581502 -15766.710069  13250.079527   -182.218942
PC34   -821.432703 -26943.048231  -7272.885929   -357.305835
PC35  16726.256318   6355.788443 -21420.056724    369.012819
PC36   8085.251264  14407.486233  22520.190034   -972.948511
PC37 -22314.600436  16457.264123  -3223.142711   -917.795499
PC38 -23607.253799  31869.810750 -14528.866706     10.600551
PC39  -8372.745581  35338.211506 -21218.253485     -0.077443
PC40 -10827.037981  20112.349557  35415.272451     -0.691422
PC41 -26925.708660  -6326.792150  -3639.230896    -86.253786
PC42    647.784378 -16262.285075  22707.645105   -953.415010
PC43 -11847.972037 -23552.902337   9159.262859      3.316147
PC44  11517.025285 -14862.469128 -20645.185771    726.276525
PC45  21438.901338  -1909.916637  17760.840496    810.731800
PC46  -9302.521141  21897.522892  14620.678862   -435.619138
PE01  12419.610769  13637.372647  23155.910530   -516.487871
PE02 -12619.993914 -13552.613911 -23090.962420    312.384854
PE03 -17400.563786 -23651.905027   3679.265574   -579.709483
PE04  23365.267968  11512.842298  14073.383827  -1072.915297
PE05  -1073.717418 -22128.620959  19633.845533   -162.331611
PE07 -15603.505099   7772.212313 -23913.660434   -688.131551
PE08 -23319.265141 -11336.972526 -14262.039963   -564.835085
PE09  15495.920363  -7708.014985  24020.794586   -590.017799
PE10  17778.657669  -8351.503033 -22156.779773   -501.013361
PE11  16861.432654 -18736.752664 -15544.588099   2985.178820
PE12  16010.609553   2806.528234 -24748.984438    -65.736514
PE13 -16926.460251  18154.590011  16120.263670    429.840730
PE14  16849.208045 -10815.055111 -24113.840043  -1777.081656
PE15 -15880.352258  -2945.411688  24801.782286    732.832449
PE18  -3904.791258  19673.748809  16244.883980  -1206.029328
PE19  15746.953729  24320.599190  -6051.778067  -5074.015181
PE21  -8412.919557  17303.379987  22497.550071   -746.306585
PE24  26452.260112 -10655.089211  -7906.776293   -728.675636
PE25   8737.140045 -17282.887358 -22375.567586   -581.297939
PE26  -7503.160663  28494.431070  -2857.703019  -1385.012678
PE27 -25849.391958  11338.322565   8927.818823   -346.400227
PE30 -27581.741036  -2010.093739 -10570.367455   -677.881954
PE31  27910.367728   1258.971189   9791.556887   -500.037290
PE33   5479.026182  22187.076932 -18814.298688   -454.644004
PE34  -5636.749062 -22039.234846  18918.023402   -486.195630
PE36   8041.164669 -28423.198766   1934.614180   -403.165483
PG01 -13895.924117  21815.813305   4852.404630    320.084550
PG02  16360.666679  -4995.533527 -19744.456270   -651.286041
PG03 -17337.218388  12437.649629 -15861.244160   -308.944435
PG04  -8006.092965  14298.396490 -20874.071456   -145.073449
PG05  25763.045291  -5834.175252   3270.697306    -89.390566
PG06  10209.039700  11692.281043 -21482.060072    387.780374
PG07  -3362.298714  24269.450930  10012.080917    319.034005
PG08 -13755.472273   6762.740711  21673.125968    -76.499563
PG09   2371.748969  21529.438427 -15419.307985   -318.337650
PG10 -13878.754816 -11945.593578  19493.507258   -494.324309
PG11  16862.786230  -1504.104078 -20462.877865    -10.631099
PG12  20183.673741 -10176.427339 -14128.014024   -247.490962
PG13  17311.853149   3963.483562  19650.168062    349.772730
PG14  11895.091964  13352.294782  19673.195676   -111.738580
PG15  13370.757829  -8486.497123  20922.503609    -44.877230
PG16 -26745.275936  -1106.457577  -1788.159363   -515.718288
PG17  13024.998853  23078.139462   1666.611935    637.651044
PG18   4232.456737 -24243.432945   9818.762019    111.223798
PG19  16972.988285  19012.753072  -8146.684149    184.631882
PG20  24877.319808    270.551489  -8961.903522    502.648008
PG21 -16380.370711  14915.303558  14734.774977    161.079717
PG22 -17830.582758 -17182.999349  -9422.828287    293.531285
PG23  -2055.605651 -14876.855465  21896.010032    -33.216879
PG24  14421.391276 -19952.202444   9103.830784    195.128676
PG25   6751.375960 -15422.136715 -20768.479634    349.963733
PG26 -23533.401272  -5070.550362 -11649.743806    218.603010
PG27 -19192.813064  -6935.216415  16992.629134    220.770347
PG28  19592.985081  10309.010689  15005.971905    334.967733
PG29  -1007.440609 -21625.401829 -15385.770576   -534.194167
PG30   4783.719697  19567.172043  17275.462229   -534.131878
PG31 -12564.995691  -9185.091968 -21620.817233   -186.024003
PG32 -16112.214343 -21220.768889   -889.896474   -178.119071
PJ02 -31419.863409  24922.218128  17911.510583     -1.778372
PJ03 -26042.166898  28195.667228  22630.233405     -0.154523
PR01   1003.767949  12562.479899 -22178.363755     11.590255
PR02  17850.967617  15388.067003  -9636.236948    524.325386
PR03  22733.889979   8499.046768   7804.239778     60.335414
PR04  14778.325591  -2695.905396  20640.860133    150.887067
PR05  -1199.845747 -12586.131667  22169.533235     96.348965
PR07 -22672.149137  -8186.145013  -8377.084915     37.961477
PR08 -14749.399871   2870.475017 -20563.325115    -66.228050
PR09  -7443.284501  -8646.581478 -22789.421857     66.151522
PR11 -21610.492821  13530.743210    346.361021     33.095514
PR12 -10160.738971  15802.237469  17291.754221     19.326432
PR13   6018.836975   9248.545489  22988.467723    -24.684739
PR14  20198.809889  -3684.322498  15167.509261     24.858212
PR15  21531.569903 -13626.790102  -1227.371884     94.648482
PR17  10371.307497   5150.724503 -22732.622297    544.102367
PR18   8965.414297 -13081.889721 -19987.617405     33.131372
PR19   4149.434830 -23886.653506  -7924.621530   -196.560692
PR20  -4849.877995 -21823.363396  12318.258023    -74.741427
PR21 -10379.205016  -3428.196124  23037.224069   -317.966914
PR24   5946.896479  21265.182011 -12779.011635    103.921983
EOF
